ONEWEB-0201             
1 48241U 21031AH  22032.48502578  .00000001  00000+0 -31471-4 0  9995
2 48241  87.8943 247.0488 0001591  90.7529 269.3783 13.14505910 38616
ONEWEB-0207             
1 48242U 21031AJ  22032.84026434 -.00000215  00000+0 -61452-3 0  9997
2 48242  87.8929 246.9760 0001929  79.9702 280.1645 13.14502213 38575
ONEWEB-0208             
1 48243U 21031AK  22032.81699924  .00000216  00000+0  54881-3 0  9992
2 48243  87.8920 246.9696 0001640 111.4956 248.6349 13.14501272 38583
ONEWEB-0200             
1 48244U 21031AL  22032.40046410 -.00000108  00000+0 -32686-3 0  9995
2 48244  87.8923 247.0354 0001697 112.9734 247.1575 13.14502322 38450
ONEWEB-0217             
1 48245U 21031AM  22032.56961958  .00000155  00000+0  38477-3 0  9990
2 48245  87.8926 247.0224 0001710 110.6828 249.4485 13.14501572 38423
ONEWEB-0211             
1 48767U 21045A   22032.58335648 -.00033508  00000+0 -89338-1 0  9997
2 48767  87.9037 216.7358 0001281 111.0341 281.8730 13.15570171  3286
ONEWEB-0223             
1 48768U 21045B   22032.58335648 -.00034469  00000+0 -91912-1 0  9996
2 48768  87.9040 216.6959 0001054 117.3637 175.4470 13.15569507  3293
ONEWEB-0230             
1 48769U 21045C   22032.58335648 -.00033796  00000+0 -90114-1 0  9992
2 48769  87.9083 216.6562 0001034 100.2426 322.6397 13.15566768  3308
ONEWEB-0237             
1 48770U 21045D   22032.58335648 -.00034659  00000+0 -92420-1 0  9995
2 48770  87.9075 216.5511 0000813  97.4177  15.5214 13.15569550  3283
ONEWEB-0235             
1 48771U 21045E   22032.58335648 -.00035405  00000+0 -94414-1 0  9991
2 48771  87.9087 216.5589 0000442 131.0936 111.8507 13.15570672  3280
ONEWEB-0242             
1 48772U 21045F   22032.58335648 -.00034806  00000+0 -92817-1 0  9991
2 48772  87.9034 216.6959 0001176 111.7229 161.0875 13.15566284  3289
ONEWEB-0241             
1 48773U 21045G   22032.58335648 -.00033862  00000+0 -90290-1 0  9996
2 48773  87.9024 216.6860 0001526 126.5954 206.3072 13.15567143  3296
ONEWEB-0243             
1 48774U 21045H   22032.58335648 -.00035575  00000+0 -94864-1 0  9991
2 48774  87.9095 216.6051 0000866  87.7563  95.1805 13.15574570  3297
ONEWEB-0222             
1 48775U 21045J   22032.58335648 -.00035419  00000+0 -94455-1 0  9995
2 48775  87.9083 216.6400 0001261 111.0940 121.8215 13.15568571  3288
ONEWEB-0244             
1 48776U 21045K   22032.58335648 -.00033834  00000+0 -90216-1 0  9996
2 48776  87.9030 216.6772 0000704  55.3689  12.4831 13.15566195  3306
ONEWEB-0247             
1 48777U 21045L   22032.47501554  .00000005  00000+0 -21245-4 0  9998
2 48777  87.9050 216.6701 0000586 122.9226 237.1961 13.15550644 34471
ONEWEB-0245             
1 48778U 21045M   22032.58335648 -.00035531  00000+0 -94750-1 0  9991
2 48778  87.9098 216.5637 0001655 112.2295  60.6476 13.15571543  3294
ONEWEB-0229             
1 48779U 21045N   22032.58335648 -.00035658  00000+0 -95091-1 0  9991
2 48779  87.9092 216.5614 0001184 115.5465  87.2925 13.15569971  3281
ONEWEB-0228             
1 48780U 21045P   22032.58335648 -.00034968  00000+0 -93240-1 0  9990
2 48780  87.9075 216.6089 0001211  95.7529  37.1400 13.15574740  3295
ONEWEB-0232             
1 48781U 21045Q   22032.58335648 -.00035279  00000+0 -94068-1 0  9996
2 48781  87.9122 216.7331 0001508 113.8987  48.9955 13.15577033  3281
ONEWEB-0231             
1 48782U 21045R   22032.58335648 -.00034958  00000+0 -93223-1 0  9992
2 48782  87.9104 216.6944 0000873 107.9944 154.9369 13.15566064  3281
ONEWEB-0234             
1 48783U 21045S   22032.58335648 -.00035056  00000+0 -93475-1 0  9992
2 48783  87.9047 216.6904 0001678 103.6064  39.3132 13.15573690  3292
ONEWEB-0238             
1 48784U 21045T   22032.58335648 -.00034143  00000+0 -91033-1 0  9997
2 48784  87.9080 216.6591 0001666 104.5000 343.4196 13.15574243  3282
ONEWEB-0240             
1 48785U 21045U   22032.58335648 -.00033747  00000+0 -89978-1 0  9992
2 48785  87.9030 216.6904 0001443 132.0195 210.8692 13.15569466  3278
ONEWEB-0246             
1 48786U 21045V   22032.58335648 -.00033581  00000+0 -89542-1 0  9996
2 48786  87.9025 216.7062 0000963 104.1585 258.7239 13.15564796  3301
ONEWEB-0210             
1 48787U 21045W   22032.58335648 -.00034738  00000+0 -92631-1 0  9995
2 48787  87.9042 216.6977 0000673  58.1602  64.7053 13.15570081  3281
ONEWEB-0214             
1 48788U 21045X   22032.58335648 -.00033882  00000+0 -90336-1 0  9995
2 48788  87.9049 216.7072 0000946  45.4750  27.4133 13.15571969  3283
ONEWEB-0221             
1 48789U 21045Y   22032.58335648 -.00033568  00000+0 -89498-1 0  9994
2 48789  87.9032 216.7189 0001193 103.3615 299.5044 13.15571008  3304
ONEWEB-0213             
1 48790U 21045Z   22032.58335648 -.00034430  00000+0 -91801-1 0  9996
2 48790  87.9104 216.6048 0000918 102.2856   0.5188 13.15573541 35654
ONEWEB-0212             
1 48791U 21045AA  22032.58335648 -.00035571  00000+0 -94860-1 0  9992
2 48791  87.9097 216.6389 0001815  92.2547 100.7072 13.15568705  3292
ONEWEB-0227             
1 48792U 21045AB  22032.58335648 -.00035540  00000+0 -94777-1 0  9996
2 48792  87.9117 216.6020 0001408 111.5813 111.3139 13.15568589  3288
ONEWEB-0226             
1 48793U 21045AC  22032.58335648 -.00035205  00000+0 -93879-1 0  9997
2 48793  87.9087 216.5908 0000620  80.6966 172.2605 13.15571407  3286
ONEWEB-0224             
1 48794U 21045AD  22032.58335648 -.00033664  00000+0 -89753-1 0  9991
2 48794  87.9028 216.6990 0001971 104.6586 308.2320 13.15572365  3301
ONEWEB-0233             
1 48795U 21045AE  22032.58335648 -.00034037  00000+0 -90761-1 0  9998
2 48795  87.9090 216.5820 0001508 113.0013 214.8619 13.15565101  3287
ONEWEB-0190             
1 48796U 21045AF  22032.58335648 -.00034286  00000+0 -91415-1 0  9992
2 48796  87.9105 216.5656 0000506 168.4489 284.4990 13.15573812  3306
ONEWEB-0236             
1 48797U 21045AG  22032.58335648 -.00033505  00000+0 -89331-1 0  9990
2 48797  87.9031 216.7348 0001393 101.1606 271.6940 13.15569426  3281
ONEWEB-0248             
1 48798U 21045AH  22032.58335648 -.00030126  00000+0 -80299-1 0  9991
2 48798  87.9029 216.7057 0001414 146.9856 165.8245 13.15566558  3289
ONEWEB-0225             
1 48799U 21045AJ  22032.58335648 -.00035548  00000+0 -94794-1 0  9990
2 48799  87.9081 216.6630 0000980 131.5581  81.3246 13.15573425  3291
ONEWEB-0215             
1 48800U 21045AK  22032.58335648 -.00033640  00000+0 -89699-1 0  9992
2 48800  87.9027 216.7082 0001147 151.3227 201.6056 13.15565950  3277
ONEWEB-0216             
1 48801U 21045AL  22032.58335648 -.00034309  00000+0 -91491-1 0  9999
2 48801  87.9071 216.6738 0001301  80.9232 221.8993 13.15564284  3272
ONEWEB-0239             
1 48802U 21045AM  22032.58335648 -.00034681  00000+0 -92483-1 0  9995
2 48802  87.9074 216.6726 0001064 148.3870 134.5368 13.15566568  3279
ONEWEB-0249             
1 48967U 21060A   22032.91667824  .00007775  00000+0  20288-1 0  9991
2 48967  87.9161 186.3830 0001366  94.1516  46.5184 13.16595380 30854
ONEWEB-0250             
1 48968U 21060B   22032.91667824  .00007345  00000+0  19164-1 0  9996
2 48968  87.9162 186.3835 0001396 119.2397 359.6725 13.16592559 30832
ONEWEB-0251             
1 48969U 21060C   22032.58335648 -.00009993  00000+0 -29797-3 0  9994
2 48969  87.4248 162.1300 0010431 170.8482 258.2083 15.34818643  3614
ONEWEB-0252             
1 48970U 21060D   22032.91667824  .00006868  00000+0  17918-1 0  9993
2 48970  87.9146 186.4080 0001057  98.9176 249.1114 13.16594870 30903
ONEWEB-0253             
1 48971U 21060E   22032.91667824  .00006543  00000+0  17070-1 0  9993
2 48971  87.9151 186.4169 0000962 115.0466 276.6450 13.16597972 30820
ONEWEB-0254             
1 48972U 21060F   22032.91667824  .00006687  00000+0  17446-1 0  9990
2 48972  87.9154 186.3774 0000933 113.6816 245.2589 13.16598747 30822
ONEWEB-0255             
1 48973U 21060G   22032.91667824  .00008505  00000+0  22194-1 0  9998
2 48973  87.9161 186.4356 0001091 112.9574  60.5245 13.16592658 30908
ONEWEB-0256             
1 48974U 21060H   22032.91667824  .00006575  00000+0  17153-1 0  9993
2 48974  87.9148 186.4122 0001584  85.7789 327.6730 13.16593277 30877
ONEWEB-0257             
1 48975U 21060J   22032.91667824  .00008558  00000+0  22331-1 0  9991
2 48975  87.9163 186.4376 0001115  92.4080 168.4007 13.16599407 30829
ONEWEB-0258             
1 48976U 21060K   22032.91667824  .00008695  00000+0  22689-1 0  9990
2 48976  87.9170 186.4254 0001400 104.9443 144.9099 13.16599392 30825
ONEWEB-0259             
1 48977U 21060L   22032.91667824  .00008319  00000+0  21706-1 0  9993
2 48977  87.9173 186.3980 0001121 128.0822 143.5545 13.16596905 30864
ONEWEB-0260             
1 48978U 21060M   22032.91667824  .00007686  00000+0  20053-1 0  9994
2 48978  87.9160 186.4199 0001265  56.5318 247.8465 13.16598191 30844
ONEWEB-0261             
1 48979U 21060N   22032.91667824  .00007220  00000+0  18837-1 0  9996
2 48979  87.9154 186.4169 0001011  96.7072  11.3400 13.16594852 30918
ONEWEB-0262             
1 48980U 21060P   22032.91667824  .00008638  00000+0  22541-1 0  9999
2 48980  87.9176 186.3426 0000835 107.9602  87.3245 13.16591878 30876
ONEWEB-0263             
1 48981U 21060Q   22032.91667824  .00006410  00000+0  16721-1 0  9999
2 48981  87.9179 186.3319 0000880 137.6048 264.9971 13.16594649 30840
ONEWEB-0264             
1 48982U 21060R   22032.91667824  .00008642  00000+0  22549-1 0  9994
2 48982  87.9194 186.2749 0001304 103.8980 124.0919 13.16597464 30831
ONEWEB-0265             
1 48983U 21060S   22032.91667824  .00834301  00000+0  76939-2 0  9997
2 48983  87.4007 160.4417 0008157 148.2380 156.7909 15.65429813 34491
ONEWEB-0266             
1 48984U 21060T   22032.91667824  .00007506  00000+0  19584-1 0  9999
2 48984  87.9169 186.3575 0001597 102.1722  27.6567 13.16593828 30830
